[{"OBJECT_NAME":"YUNHAI-1 03","OBJECT_ID":"2022-115A","EPOCH":"2026-03-09T22:42:18.502272","MEAN_MOTION":14.32645592,"ECCENTRICITY":0.00045037,"INCLINATION":98.5539,"RA_OF_ASC_NODE":68.3628,"ARG_OF_PERICENTER":355.0463,"MEAN_ANOMALY":5.0676,"EPHEMERIS_TYPE":0,"CLASSIFICATION_TYPE":"U","NORAD_CAT_ID":53877,"ELEMENT_SET_NO":999,"REV_AT_EPOCH":18130,"BSTAR":0.00016609215,"MEAN_MOTION_DOT":4.08e-6,"MEAN_MOTION_DDOT":0},{"OBJECT_NAME":"CZ-6A DEB","OBJECT_ID":"2024-140RD","EPOCH":"2026-03-09T14:38:29.254848","MEAN_MOTION":14.43963521,"ECCENTRICITY":0.0054142,"INCLINATION":88.9592,"RA_OF_ASC_NODE":280.8923,"ARG_OF_PERICENTER":279.2521,"MEAN_ANOMALY":80.2561,"EPHEMERIS_TYPE":0,"CLASSIFICATION_TYPE":"U","NORAD_CAT_ID":61159,"ELEMENT_SET_NO":999,"REV_AT_EPOCH":8143,"BSTAR":0.00048627,"MEAN_MOTION_DOT":1.704e-5,"MEAN_MOTION_DDOT":0}]
